OBJECT_NAME,OBJECT_ID,EPOCH,MEAN_MOTION,ECCENTRICITY,INCLINATION,RA_OF_ASC_NODE,ARG_OF_PERICENTER,MEAN_ANOMALY,EPHEMERIS_TYPE,CLASSIFICATION_TYPE,NORAD_CAT_ID,ELEMENT_SET_NO,REV_AT_EPOCH,BSTAR,MEAN_MOTION_DOT,MEAN_MOTION_DDOT
STARLINK-30381,2023-134Q,2026-05-09T05:15:30.017088,15.27620954,.0002387,43.0075,212.5830,269.2001,90.8577,0,U,57785,999,14876,.1998E-3,.5246E-4,0
STARLINK-30382,2023-134R,2026-05-08T22:21:55.912032,15.27591587,.0001502,43.0000,213.9644,257.7858,102.2825,0,U,57786,999,14872,.29589E-3,.7892E-4,0
STARLINK-30378,2023-134S,2026-05-08T13:48:46.620576,15.27579175,.00016019,43.0034,216.4404,261.5717,98.4953,0,U,57787,999,14866,.11504831E-3,.2905E-4,0
STARLINK-30387,2023-134T,2026-05-08T22:23:50.097408,15.27584696,.0001994,43.0044,202.8632,258.8023,101.2605,0,U,57788,999,14885,.21439E-3,.5643E-4,0
STARLINK-30372,2023-134U,2026-05-08T14:50:19.178592,15.27577851,.00010166,43.0001,99.9326,275.4496,84.6239,0,U,57789,999,15003,.66931928E-4,.158E-4,0
STARLINK-30367,2023-134W,2026-05-08T22:53:22.820640,15.27602079,.000156,43.0018,214.1244,281.4770,78.5907,0,U,57791,999,14872,.38376E-3,.1032E-3,0
TIANQI-21,2023-135A,2026-05-09T02:05:57.922080,14.23098727,.0013546,49.9727,316.8299,119.8802,240.3457,0,U,57792,999,13906,.22633E-4,-.108E-5,0
TIANQI-22,2023-135B,2026-05-09T03:23:18.846240,14.23096671,.0013631,49.9690,316.8236,123.4878,236.7339,0,U,57793,999,13906,.12267E-3,.12E-5,0
TIANQI-23,2023-135C,2026-05-08T23:07:50.064096,14.23139487,.0014241,49.9737,317.5701,122.3243,237.9050,0,U,57794,999,13904,.89655E-4,.45E-6,0
TIANQI-24,2023-135D,2026-05-09T01:15:55.586016,14.23126337,.0014145,49.9743,317.4437,123.7870,236.4391,0,U,57795,999,13905,.20596E-3,.309E-5,0
YAOGAN-33 03,2023-136A,2026-05-09T03:55:46.282368,14.58692437,.0006844,98.1957,54.0102,317.3995,42.6673,0,U,57797,999,14224,.86477E-4,.357E-5,0
XRISM,2023-137A,2026-05-09T01:13:31.894176,15.12142090,.0007696,31.0019,253.0421,289.4104,70.5703,0,U,57800,999,14693,.23028E-3,.4168E-4,0
STARLINK-30374,2023-138B,2026-05-09T01:19:18.046272,15.27586525,.0000881,43.0036,252.9988,280.5600,79.5152,0,U,57809,999,14797,.35375E-4,.712E-5,0
STARLINK-30394,2023-138C,2026-05-09T01:39:38.841984,15.27616868,.0002081,43.0046,253.1013,256.6038,103.4582,0,U,57810,999,14787,.19219E-3,.5036E-4,0
STARLINK-30379,2023-138D,2026-05-09T01:45:12.637152,15.27580005,.0000716,43.0048,253.1285,239.4777,120.6004,0,U,57811,999,14797,-.28442E-4,-.1044E-4,0
STARLINK-30395,2023-138E,2026-05-08T19:34:06.910464,15.27591301,.00015062,43.0024,254.6338,261.1603,98.9078,0,U,57812,999,14793,.17127701E-3,.4455E-4,0
STARLINK-30403,2023-138F,2026-05-08T18:03:39.862944,15.27589824,.00015374,43.0038,255.0249,249.3207,110.7480,0,U,57813,999,14782,.11809299E-3,.299E-4,0
STARLINK-30413,2023-138G,2026-05-09T01:08:24.667872,15.27586000,.0001143,43.0014,253.7964,267.5080,92.5641,0,U,57814,999,14796,.38247E-4,.791E-5,0
STARLINK-30398,2023-138H,2026-05-08T15:12:01.713024,15.27598689,.00007542,42.9981,255.8464,287.0210,73.0559,0,U,57815,999,14780,-.25593752E-3,-.7302E-4,0
STARLINK-30386,2023-138J,2026-05-09T00:42:29.408256,15.27580218,.0000885,43.0013,253.6632,253.7250,106.3505,0,U,57816,999,14778,.20547E-3,.5396E-4,0
STARLINK-30391,2023-138K,2026-05-09T00:48:02.781792,15.27620220,.0002538,43.0018,253.6886,280.5245,79.5320,0,U,57817,999,14796,.63851E-3,.17372E-3,0
STARLINK-30401,2023-138L,2026-05-09T00:51:44.994816,15.27565417,.000413,43.0068,253.6993,256.8147,103.2244,0,U,57818,999,14786,-.85558E-4,-.2616E-4,0
STARLINK-30390,2023-138M,2026-05-09T00:57:16.864992,15.27590904,.0001592,43.0010,253.7376,267.4700,92.5969,0,U,57819,999,14790,.10719E-3,.269E-4,0
STARLINK-30409,2023-138N,2026-05-09T01:30:22.946112,15.27596444,.0001439,43.0082,253.0334,282.7929,77.2762,0,U,57820,999,14791,.30209E-4,.569E-5,0
STARLINK-30415,2023-138P,2026-05-08T17:23:10.691520,15.27580611,.00015736,43.0022,255.6679,265.6942,94.3730,0,U,57821,999,14791,.22234834E-3,.5861E-4,0
STARLINK-30407,2023-138R,2026-05-08T18:15:12.860928,15.27576056,.00011325,43.0010,149.5347,273.3504,86.7218,0,U,57823,999,14915,.21134902E-4,.32E-5,0
STARLINK-30408,2023-138S,2026-05-09T01:24:50.160960,15.27586002,.0001953,43.0079,253.0251,265.5104,94.5525,0,U,57824,999,14796,.96368E-4,.2391E-4,0
STARLINK-30377,2023-138T,2026-05-09T01:23:02.838336,15.27544114,.0000821,43.0032,253.0138,264.3501,95.7257,0,U,57825,999,14786,-.35403E-3,-.998E-4,0
STARLINK-30422,2023-138U,2026-05-08T18:05:31.470144,15.27588947,.00016249,43.0022,255.0226,257.7333,102.3337,0,U,57826,999,14791,.22344464E-3,.5893E-4,0
STARLINK-30402,2023-138V,2026-05-09T01:41:29.512608,15.27590864,.0001778,43.0064,253.1073,265.6270,94.4379,0,U,57827,999,14796,.45937E-4,.1002E-4,0
