STARLINK-30381          
1 57785U 23134Q   26129.21909742  .00005246  00000+0  19980-3 0  9995
2 57785  43.0075 212.5830 0002387 269.2001  90.8577 15.27620954148767
STARLINK-30382          
1 57786U 23134R   26128.93189713  .00007892  00000+0  29589-3 0  9997
2 57786  43.0000 213.9644 0001502 257.7858 102.2825 15.27591587148723
STARLINK-30378          
1 57787U 23134S   26128.57553959  .00002905  00000+0  11505-3 0  9994
2 57787  43.0034 216.4404 0001601 261.5717  98.4953 15.27579175148660
STARLINK-30387          
1 57788U 23134T   26128.93321872  .00005643  00000+0  21439-3 0  9991
2 57788  43.0044 202.8632 0001994 258.8023 101.2605 15.27584696148850
STARLINK-30372          
1 57789U 23134U   26128.61827753  .00001580  00000+0  66932-4 0  9990
2 57789  43.0001  99.9326 0001016 275.4496  84.6239 15.27577851150038
STARLINK-30367          
1 57791U 23134W   26128.95373635  .00010320  00000+0  38376-3 0  9997
2 57791  43.0018 214.1244 0001560 281.4770  78.5907 15.27602079148723
TIANQI-21               
1 57792U 23135A   26129.08747595 -.00000108  00000+0  22633-4 0  9998
2 57792  49.9727 316.8299 0013546 119.8802 240.3457 14.23098727139063
TIANQI-22               
1 57793U 23135B   26129.14119035  .00000120  00000+0  12267-3 0  9992
2 57793  49.9690 316.8236 0013631 123.4878 236.7339 14.23096671139067
TIANQI-23               
1 57794U 23135C   26128.96377389  .00000045  00000+0  89655-4 0  9992
2 57794  49.9737 317.5701 0014241 122.3243 237.9050 14.23139487139041
TIANQI-24               
1 57795U 23135D   26129.05272669  .00000309  00000+0  20596-3 0  9990
2 57795  49.9743 317.4437 0014145 123.7870 236.4391 14.23126337139051
YAOGAN-33 03            
1 57797U 23136A   26129.16373012  .00000357  00000+0  86477-4 0  9993
2 57797  98.1957  54.0102 0006844 317.3995  42.6673 14.58692437142247
XRISM                   
1 57800U 23137A   26129.05106359  .00004168  00000+0  23028-3 0  9991
2 57800  31.0019 253.0421 0007696 289.4104  70.5703 15.12142090146939
STARLINK-30374          
1 57809U 23138B   26129.05506998  .00000712  00000+0  35375-4 0  9994
2 57809  43.0036 252.9988 0000881 280.5600  79.5152 15.27586525147971
STARLINK-30394          
1 57810U 23138C   26129.06919956  .00005036  00000+0  19219-3 0  9991
2 57810  43.0046 253.1013 0002081 256.6038 103.4582 15.27616868147876
STARLINK-30379          
1 57811U 23138D   26129.07306293 -.00001044  00000+0 -28442-4 0  9993
2 57811  43.0048 253.1285 0000716 239.4777 120.6004 15.27580005147976
STARLINK-30395          
1 57812U 23138E   26128.81535776  .00004455  00000+0  17128-3 0  9990
2 57812  43.0024 254.6338 0001506 261.1603  98.9078 15.27591301147939
STARLINK-30403          
1 57813U 23138F   26128.75254471  .00002990  00000+0  11809-3 0  9996
2 57813  43.0038 255.0249 0001537 249.3207 110.7480 15.27589824147828
STARLINK-30413          
1 57814U 23138G   26129.04750773  .00000791  00000+0  38247-4 0  9999
2 57814  43.0014 253.7964 0001143 267.5080  92.5641 15.27586000147960
STARLINK-30398          
1 57815U 23138H   26128.63335316 -.00007302  00000+0 -25594-3 0  9993
2 57815  42.9981 255.8464 0000754 287.0210  73.0559 15.27598689147800
STARLINK-30386          
1 57816U 23138J   26129.02950704  .00005396  00000+0  20547-3 0  9994
2 57816  43.0013 253.6632 0000885 253.7250 106.3505 15.27580218147788
STARLINK-30391          
1 57817U 23138K   26129.03336553  .00017372  00000+0  63851-3 0  9998
2 57817  43.0018 253.6886 0002538 280.5245  79.5320 15.27620220147968
STARLINK-30401          
1 57818U 23138L   26129.03593744 -.00002616  00000+0 -85558-4 0  9992
2 57818  43.0068 253.6993 0004130 256.8147 103.2244 15.27565417147865
STARLINK-30390          
1 57819U 23138M   26129.03977853  .00002690  00000+0  10719-3 0  9996
2 57819  43.0010 253.7376 0001592 267.4700  92.5969 15.27590904147909
STARLINK-30409          
1 57820U 23138N   26129.06276558  .00000569  00000+0  30209-4 0  9995
2 57820  43.0082 253.0334 0001439 282.7929  77.2762 15.27596444147917
STARLINK-30415          
1 57821U 23138P   26128.72442930  .00005861  00000+0  22235-3 0  9996
2 57821  43.0022 255.6679 0001573 265.6942  94.3730 15.27580611147910
STARLINK-30407          
1 57823U 23138R   26128.76056552  .00000320  00000+0  21135-4 0  9997
2 57823  43.0010 149.5347 0001132 273.3504  86.7218 15.27576056149155
STARLINK-30408          
1 57824U 23138S   26129.05891390  .00002391  00000+0  96368-4 0  9998
2 57824  43.0079 253.0251 0001953 265.5104  94.5525 15.27586002147963
STARLINK-30377          
1 57825U 23138T   26129.05767174 -.00009980  00000+0 -35403-3 0  9996
2 57825  43.0032 253.0138 0000821 264.3501  95.7257 15.27544114147860
STARLINK-30422          
1 57826U 23138U   26128.75383646  .00005893  00000+0  22344-3 0  9998
2 57826  43.0022 255.0226 0001624 257.7333 102.3337 15.27588947147913
STARLINK-30402          
1 57827U 23138V   26129.07048047  .00001002  00000+0  45937-4 0  9990
2 57827  43.0064 253.1073 0001778 265.6270  94.4379 15.27590864147960
